satname,norad_id,inclination_deg,eccentricity,mean_motion_rev_per_day,perigee_km,apogee_km,l1,l2
STARLINK-1570,46059,53.1624,0.000169,15.31723495,469.51251037244947,471.82740712450686,1 46059U 20055AJ  26160.42183269  .00009757  00000+0  32553-3 0  9994,2 46059  53.1624  47.2060 0001690  38.3922 321.7200 15.31723495323080
STARLINK-1572,46060,53.1605,9.49e-05,15.30202605,474.55690899666206,475.8576737431631,1 46060U 20055AK  26159.90869477 -.00003819  00000+0 -11686-3 0  9998,2 46060  53.1605  50.4151 0000949  96.3428 263.7680 15.30202605323002
STARLINK-1573,46061,53.1598,0.0001365,15.31736341,469.6968098144944,471.56652366051367,1 46061U 20055AL  26160.01631073  .00006574  00000+0  22319-3 0  9996,2 46061  53.1598  49.0539 0001365  74.9145 285.2007 15.31736341323067
STARLINK-1577,46063,53.1603,0.0001266,15.31699785,469.87356822080073,471.6077040382679,1 46063U 20055AN  26159.97906159  .00003823  00000+0  13489-3 0  9993,2 46063  53.1603  49.2264 0001266  95.3084 264.8062 15.31699785323055
STARLINK-1583,46064,53.1607,0.0001165,15.31694001,469.9599817375647,471.55577424413696,1 46064U 20055AP  26160.38462508  .00003751  00000+0  13261-3 0  9994,2 46064  53.1607  47.8362 0001165 100.5384 259.5749 15.31694001323108
STARLINK-1536,46070,53.1599,0.0001238,15.31698906,469.89536500892063,471.5911477604013,1 46070U 20055AV  26160.38590533  .00007594  00000+0  25625-3 0  9997,2 46070  53.1599  35.2192 0001238  77.2120 282.9020 15.31698906323285
STARLINK-1542,46073,53.1604,7.43e-05,15.31700139,470.2307093439531,471.24845240387185,1 46073U 20055AY  26159.88826645  .00004332  00000+0  15126-3 0  9991,2 46073  53.1604  40.5040 0000743 118.5007 241.6070 15.31700139323154
STARLINK-1549,46074,53.0519,0.0002975,15.29466582,475.366274414112,479.4453223791588,1 46074U 20055AZ  26160.37217166  .00018145  00000+0  63736-3 0  9997,2 46074  53.0519  35.4172 0002975 127.0612 233.0659 15.29466582323251
STARLINK-1551,46075,53.1612,0.0001011,15.3017017,474.6112549703239,475.99702076840094,1 46075U 20055BA  26160.37586798 -.00001856  00000+0 -50624-4 0  9994,2 46075  53.1612  35.1911 0001011  91.7429 268.3688 15.30170170323270
STARLINK-1552,46076,53.1612,0.0001073,15.31699786,470.00574857854826,471.47551771862254,1 46076U 20055BB  26160.36287086  .00003277  00000+0  11732-3 0  9995,2 46076  53.1612  34.8452 0001073  93.3403 266.7721 15.31699786323264
STARLINK-1559,46077,53.0241,9.74e-05,15.38523017,449.81103286998314,451.1412467096152,1 46077U 20055BC  26160.74309095  .00052061  00000+0  13500-2 0  9992,2 46077  53.0241   2.4477 0000974 114.8294 245.2810 15.38523017323717
STARLINK-1566,46079,53.1627,0.0001178,15.31701253,469.9294628303551,471.5430573704334,1 46079U 20055BE  26160.36750194  .00003425  00000+0  12208-3 0  9997,2 46079  53.1627  34.6751 0001178  98.7629 261.3506 15.31701253323285
STARLINK-1568,46080,53.0593,0.0002976,15.54408316,401.8548010789427,405.89145350670697,1 46080U 20055BF  26160.67884211  .00045386  00000+0  68273-3 0  9996,2 46080  53.0593 311.4366 0002976  68.6370 291.4957 15.54408316324466
STARLINK-1578,46082,53.1611,0.0001153,15.31689796,469.98073396282325,471.5600920122588,1 46082U 20055BH  26160.37190247  .00002430  00000+0  90079-4 0  9997,2 46082  53.1611  35.1708 0001153  95.7495 264.3638 15.31689796323276
STARLINK-1579,46083,53.1601,0.0001128,15.31696828,469.9768964172572,471.52200520055885,1 46083U 20055BJ  26160.35819708  .00003051  00000+0  11005-3 0  9997,2 46083  53.1601  34.7722 0001128  98.6894 261.4236 15.31696828323270
STARLINK-1622,46128,53.0133,0.0006481,15.85687949,310.05091432375684,318.725765669461,1 46128U 20057M   26161.00004630  .00202614  00000+0  80083-3 0  9990,2 46128  53.0133 125.1038 0006481  75.8596   1.8517 15.85687949  5961
STARLINK-1623,46129,53.0393,0.0006024,15.75348169,339.5914097222303,347.68980738501523,1 46129U 20057N   26161.00004630  .00054764  00000+0  35704-3 0  9992,2 46129  53.0393 163.4748 0006024  38.9878 155.6448 15.75348169  6003
STARLINK-1596,46141,53.0345,0.0006973,15.59967807,383.0323109574556,392.4680171964774,1 46141U 20057AA  26160.69031235  .00092634  00000+0  11190-2 0  9991,2 46141  53.0345 147.7168 0006973  39.4223 320.7295 15.59967807321562
STARLINK-1597,46142,53.04,0.0005146,15.74936372,341.3526186870604,348.2718780534833,1 46142U 20057AB  26160.30817270  .00099371  00000+0  65288-3 0  9994,2 46142  53.0400 206.6714 0005146  31.2265 328.9059 15.74936372320695
STARLINK-1606,46144,53.0318,0.0002389,15.95719645,284.71778697507034,287.90205971504474,1 46144U 20057AD  26161.00004630  .00426836  84612-4  10389-2 0  9999,2 46144  53.0318 155.8229 0002389 165.5527  89.2078 15.95719645  6031
STARLINK-1608,46146,53.1576,0.0005,15.36181066,453.99687619620363,460.83242784822596,1 46146U 20057AF  26160.54370684  .00048137  00000+0  13476-2 0  9992,2 46146  53.1576 241.2575 0005000 345.9098  14.1766 15.36181066320264
STARLINK-1667,46155,53.0093,0.0005993,15.91986298,292.72475080571985,300.7252403936445,1 46155U 20057AQ  26161.00004630  .00307574  46779-4  91391-3 0  9993,2 46155  53.0093 124.1935 0005993  78.9964  67.8586 15.91986298  6012
STARLINK-1545,46156,53.0365,0.0001205,15.87031543,309.8045146208733,311.4165027704694,1 46156U 20057AR  26161.00004630  .00275375  00000+0  10113-2 0  9991,2 46156  53.0365 160.5885 0001205 107.7499 334.0579 15.87031543  6019
STARLINK-1595,46159,53.0413,0.0005601,15.72720955,347.35523975672186,354.89335826387287,1 46159U 20057AU  26160.40558254  .00092469  00000+0  66896-3 0  9994,2 46159  53.0413 208.9652 0005601  22.6874 337.4390 15.72720955321936
STARLINK-1598,46160,53.0428,0.0001432,15.72519992,350.73389312565996,352.6613177566578,1 46160U 20057AV  26160.38005194  .00081865  00000+0  59901-3 0  9990,2 46160  53.0428 195.2512 0001432 331.7126  28.3814 15.72519992322114
STARLINK-1626,46167,53.0391,0.0001499,15.75918528,341.0113215739211,343.0260242446593,1 46167U 20057BC  26161.00004630  .00088784  00000+0  56033-3 0  9991,2 46167  53.0391 201.5773 0001499  69.2376 289.3421 15.75918528  5935
STARLINK-1633,46171,53.0331,0.0001748,15.83917275,318.2044383518205,320.5458886041715,1 46171U 20057BG  26161.00004630  .00150766  00000+0  65408-3 0  9992,2 46171  53.0331 162.5131 0001748 110.6956 259.7424 15.83917275  5920
STARLINK-1635,46172,53.0363,0.0001514,15.90150561,300.8498177817819,302.8725212275076,1 46172U 20057BH  26161.00004630  .00306405  00000+0  95960-3 0  9992,2 46172  53.0363 160.2990 0001514 113.1552 214.9088 15.90150561  5952
